ORBCOMM FM37            
1 33064U 08031E   25185.43571091  .00000837  00000+0  13800-3 0  9991
2 33064  48.4397 261.6320 0004497  88.8251   1.5775 14.79812263916924
ORBCOMM FM40            
1 33065U 08031F   25185.17517568  .00001139  00000+0  16871-3 0  9999
2 33065  48.4412 246.6221 0005552 102.1374 287.0064 14.82080934917126
VESSELSAT 1             
1 37840U 11058C   25184.78492057  .00000326  00000+0  33463-4 0  9992
2 37840  19.9635 353.4555 0013703   9.4795 350.5867 14.11356061708653
ORBCOMM FM109           
1 40086U 14040A   25184.69809411  .00000279  00000+0  96424-4 0  9991
2 40086  47.0042 298.3149 0000804  46.9219 313.1734 14.58193167583470
ORBCOMM FM107           
1 40087U 14040B   25185.34256203  .00000406  00000+0  12346-3 0  9992
2 40087  47.0057 296.2298 0001224 312.8254  47.2529 14.58266839583687
ORBCOMM FM106           
1 40088U 14040C   25185.29787478  .00000660  00000+0  14171-3 0  9990
2 40088  47.0601 117.1713 0016264 147.4691 212.7205 14.69470893586203
ORBCOMM FM111           
1 40089U 14040D   25185.49380201  .00001784  00000+0  22299-3 0  9994
2 40089  47.0036 324.0642 0031215 274.5320  85.2011 14.86366561592806
ORBCOMM FM104           
1 40090U 14040E   25185.14394832  .00000332  00000+0  11127-3 0  9999
2 40090  47.0064 330.9793 0016942 280.9698  78.9281 14.56663565583192
